{
  "norad_id": 63833,
  "name": "HERMES-4",
  "history": [
    {
      "epoch": "2026-03-28T15:51:07.480800Z",
      "apogee_km": 486.3577277995055,
      "perigee_km": 480.1838330786659,
      "latitude_deg": 8.279117334620907e-09,
      "longitude_deg": -81.8191275443479,
      "height_km": 487.6534832094591,
      "semi_major_axis_km": 6861.407780439085,
      "eccentricity": 0.0004499,
      "inclination_deg": 97.3979,
      "raan_deg": 342.0398,
      "arg_perigee_deg": 114.6787,
      "mean_anomaly_deg": 245.4921,
      "mean_motion_rev_day": 15.27505969
    },
    {
      "epoch": "2026-03-29T04:25:46.422912Z",
      "apogee_km": 486.2956733168621,
      "perigee_km": 480.07108346958375,
      "latitude_deg": 3.5577939252083494e-05,
      "longitude_deg": 89.52187011406359,
      "height_km": 487.5260333437544,
      "semi_major_axis_km": 6861.320378393223,
      "eccentricity": 0.0004536,
      "inclination_deg": 97.3979,
      "raan_deg": 342.5596,
      "arg_perigee_deg": 113.6593,
      "mean_anomaly_deg": 246.5123,
      "mean_motion_rev_day": 15.27535156
    },
    {
      "epoch": "2026-03-29T06:00:06.229440Z",
      "apogee_km": 486.28856512357834,
      "perigee_km": 480.05739785079095,
      "latitude_deg": -3.72018198220653e-05,
      "longitude_deg": 65.93978567983217,
      "height_km": 487.5138810094872,
      "semi_major_axis_km": 6861.309981487185,
      "eccentricity": 0.00045408,
      "inclination_deg": 97.3981,
      "raan_deg": 342.6246,
      "arg_perigee_deg": 113.5976,
      "mean_anomaly_deg": 246.574,
      "mean_motion_rev_day": 15.27538628
    },
    {
      "epoch": "2026-03-30T10:18:00.702720Z",
      "apogee_km": 486.2433259290974,
      "perigee_km": 479.7537894732013,
      "latitude_deg": -6.823241256200156e-05,
      "longitude_deg": 1.470441910571532,
      "height_km": 487.2671494333982,
      "semi_major_axis_km": 6861.135557701149,
      "eccentricity": 0.00047292,
      "inclination_deg": 97.3981,
      "raan_deg": 343.7944,
      "arg_perigee_deg": 111.2369,
      "mean_anomaly_deg": 248.9375,
      "mean_motion_rev_day": 15.27596878
    },
    {
      "epoch": "2026-03-31T11:27:12.409344Z",
      "apogee_km": 486.0558661688092,
      "perigee_km": 479.640844861402,
      "latitude_deg": -4.390835620010512e-05,
      "longitude_deg": -15.821544847687521,
      "height_km": 487.0309339375353,
      "semi_major_axis_km": 6860.985355515105,
      "eccentricity": 0.0004675,
      "inclination_deg": 97.3977,
      "raan_deg": 344.8342,
      "arg_perigee_deg": 109.852,
      "mean_anomaly_deg": 250.3223,
      "mean_motion_rev_day": 15.27647042
    },
    {
      "epoch": "2026-04-01T11:02:02.136480Z",
      "apogee_km": 485.9577117845329,
      "perigee_km": 479.49477860755815,
      "latitude_deg": -6.208707164192064e-05,
      "longitude_deg": -9.522453492464745,
      "height_km": 486.82253470527746,
      "semi_major_axis_km": 6860.863245196045,
      "eccentricity": 0.000471,
      "inclination_deg": 97.3975,
      "raan_deg": 345.8089,
      "arg_perigee_deg": 108.0839,
      "mean_anomaly_deg": 252.0913,
      "mean_motion_rev_day": 15.27687826
    },
    {
      "epoch": "2026-04-02T10:36:49.408992Z",
      "apogee_km": 485.8545219814905,
      "perigee_km": 479.27771475815916,
      "latitude_deg": -1.711926541587581e-05,
      "longitude_deg": -3.213015014119339,
      "height_km": 486.57301836118256,
      "semi_major_axis_km": 6860.703118369825,
      "eccentricity": 0.00047931,
      "inclination_deg": 97.3972,
      "raan_deg": 346.7837,
      "arg_perigee_deg": 106.1359,
      "mean_anomaly_deg": 254.0408,
      "mean_motion_rev_day": 15.2774131
    },
    {
      "epoch": "2026-04-02T23:11:21.162624Z",
      "apogee_km": 485.74496050796733,
      "perigee_km": 479.1494692671431,
      "latitude_deg": 4.411557879450179e-05,
      "longitude_deg": 168.15781374129227,
      "height_km": 486.4171201492287,
      "semi_major_axis_km": 6860.584214887555,
      "eccentricity": 0.00048068,
      "inclination_deg": 97.397,
      "raan_deg": 347.3033,
      "arg_perigee_deg": 105.4215,
      "mean_anomaly_deg": 254.7556,
      "mean_motion_rev_day": 15.27781027
    },
    {
      "epoch": "2026-04-03T16:28:48.222336Z",
      "apogee_km": 485.6344083187305,
      "perigee_km": 478.99623465246077,
      "latitude_deg": -1.2804314519339812e-06,
      "longitude_deg": -91.2001391993278,
      "height_km": 486.19862753843705,
      "semi_major_axis_km": 6860.452321485595,
      "eccentricity": 0.0004838,
      "inclination_deg": 97.3968,
      "raan_deg": 348.0182,
      "arg_perigee_deg": 103.7769,
      "mean_anomaly_deg": 256.4009,
      "mean_motion_rev_day": 15.27825085
    },
    {
      "epoch": "2026-04-04T16:03:27.471744Z",
      "apogee_km": 485.41435982940766,
      "perigee_km": 478.86416805259614,
      "latitude_deg": 4.986917358210234e-05,
      "longitude_deg": -84.85718202536802,
      "height_km": 485.9180939822639,
      "semi_major_axis_km": 6860.276263941001,
      "eccentricity": 0.0004774,
      "inclination_deg": 97.3963,
      "raan_deg": 348.993,
      "arg_perigee_deg": 102.0873,
      "mean_anomaly_deg": 258.0902,
      "mean_motion_rev_day": 15.27883899
    },
    {
      "epoch": "2026-04-05T10:55:08.867136Z",
      "apogee_km": 485.34069394845665,
      "perigee_km": 478.7158323538306,
      "latitude_deg": 4.991964959565027e-06,
      "longitude_deg": -7.774672389056568,
      "height_km": 485.74579591863596,
      "semi_major_axis_km": 6860.165263151143,
      "eccentricity": 0.00048285,
      "inclination_deg": 97.396,
      "raan_deg": 349.7726,
      "arg_perigee_deg": 100.8692,
      "mean_anomaly_deg": 259.3091,
      "mean_motion_rev_day": 15.27920982
    },
    {
      "epoch": "2026-04-05T15:38:03.996096Z",
      "apogee_km": 485.3167860518097,
      "perigee_km": 478.6912618508777,
      "latitude_deg": -3.6807470450674302e-06,
      "longitude_deg": -78.50312666985941,
      "height_km": 485.68836641698124,
      "semi_major_axis_km": 6860.141023951343,
      "eccentricity": 0.0004829,
      "inclination_deg": 97.396,
      "raan_deg": 349.9675,
      "arg_perigee_deg": 100.2844,
      "mean_anomaly_deg": 259.894,
      "mean_motion_rev_day": 15.2792908
    },
    {
      "epoch": "2026-04-06T04:12:30.522528Z",
      "apogee_km": 485.3027914724589,
      "perigee_km": 478.57566352224967,
      "latitude_deg": 8.259604180399234e-05,
      "longitude_deg": 92.8894370608884,
      "height_km": 485.6064154392931,
      "semi_major_axis_km": 6860.076227497354,
      "eccentricity": 0.00049031,
      "inclination_deg": 97.3956,
      "raan_deg": 350.487,
      "arg_perigee_deg": 99.8333,
      "mean_anomaly_deg": 260.3461,
      "mean_motion_rev_day": 15.27950728
    },
    {
      "epoch": "2026-04-07T10:04:15.994848Z",
      "apogee_km": 485.1717333209035,
      "perigee_km": 478.4152505807706,
      "latitude_deg": 6.063679244037019e-05,
      "longitude_deg": 4.958153934744128,
      "height_km": 485.3109346026281,
      "semi_major_axis_km": 6859.930491950837,
      "eccentricity": 0.00049246,
      "inclination_deg": 97.3951,
      "raan_deg": 351.7216,
      "arg_perigee_deg": 97.2231,
      "mean_anomaly_deg": 262.9569,
      "mean_motion_rev_day": 15.27999419
    },
    {
      "epoch": "2026-04-08T04:55:52.726368Z",
      "apogee_km": 485.0881370403713,
      "perigee_km": 478.3568313229225,
      "latitude_deg": 7.736012908652037e-05,
      "longitude_deg": 82.0602404175411,
      "height_km": 485.1340045635678,
      "semi_major_axis_km": 6859.859484181647,
      "eccentricity": 0.00049063,
      "inclination_deg": 97.395,
      "raan_deg": 352.5013,
      "arg_perigee_deg": 95.4357,
      "mean_anomaly_deg": 264.7443,
      "mean_motion_rev_day": 15.28023144
    },
    {
      "epoch": "2026-04-09T10:47:33.573696Z",
      "apogee_km": 485.0025227608603,
      "perigee_km": 478.2180954771957,
      "latitude_deg": -3.836090739266074e-05,
      "longitude_deg": -5.851907530647942,
      "height_km": 484.8820595408951,
      "semi_major_axis_km": 6859.747309119028,
      "eccentricity": 0.00049451,
      "inclination_deg": 97.3951,
      "raan_deg": 353.7357,
      "arg_perigee_deg": 93.027,
      "mean_anomaly_deg": 267.1535,
      "mean_motion_rev_day": 15.28060625
    },
    {
      "epoch": "2026-04-10T10:22:00.632064Z",
      "apogee_km": 484.88843225284836,
      "perigee_km": 478.12893739502306,
      "latitude_deg": 1.9382793643354253e-06,
      "longitude_deg": 0.5417841477272209,
      "height_km": 484.6655121937227,
      "semi_major_axis_km": 6859.645684823936,
      "eccentricity": 0.0004927,
      "inclination_deg": 97.3951,
      "raan_deg": 354.7103,
      "arg_perigee_deg": 91.0879,
      "mean_anomaly_deg": 269.0925,
      "mean_motion_rev_day": 15.28094582
    },
    {
      "epoch": "2026-04-11T03:39:15.426432Z",
      "apogee_km": 484.8652482538555,
      "perigee_km": 478.045990039308,
      "latitude_deg": -4.9945192140944304e-06,
      "longitude_deg": 101.23497019906215,
      "height_km": 484.52712804378507,
      "semi_major_axis_km": 6859.5926191465815,
      "eccentricity": 0.00049706,
      "inclination_deg": 97.3951,
      "raan_deg": 355.4251,
      "arg_perigee_deg": 89.6461,
      "mean_anomaly_deg": 270.5348,
      "mean_motion_rev_day": 15.28112314
    },
    {
      "epoch": "2026-04-12T23:39:27.886752Z",
      "apogee_km": 484.713793302918,
      "perigee_km": 477.9382900888522,
      "latitude_deg": 8.900599782466538e-06,
      "longitude_deg": 161.19549064645133,
      "height_km": 484.1757260600494,
      "semi_major_axis_km": 6859.463041695884,
      "eccentricity": 0.00049388,
      "inclination_deg": 97.3955,
      "raan_deg": 357.2447,
      "arg_perigee_deg": 85.8871,
      "mean_anomaly_deg": 274.2933,
      "mean_motion_rev_day": 15.28155614
    }
  ]
}